COSMOS 2426 (717)       
1 29671U 06062B   19334.14301185 -.00000010  00000-0  10000-3 0  9998
2 29671  65.0475 274.6801 0020206 177.4695 221.2385  2.12961964100634
COSMOS 2433 (720)       
1 32275U 07052A   19333.53005296 -.00000070  00000-0  10000-3 0  9994
2 32275  65.9141  35.6195 0004494 236.8966  89.4849  2.13104498 94127
COSMOS 2432 (719)       
1 32276U 07052B   19334.19876373 -.00000073  00000-0  10000-3 0  9993
2 32276  65.9282  35.6862 0009733 319.8399 110.2182  2.13103620 94149
COSMOS 2434 (721)       
1 32393U 07065A   19334.01754209 -.00000010  00000-0  00000+0 0  9997
2 32393  64.6522 273.2979 0001352 107.2770 120.4940  2.13102963 92841
COSMOS 2436 (723)       
1 32395U 07065C   19334.41614884 -.00000010  00000-0  10000-3 0  9992
2 32395  64.6623 273.3348 0015133 333.6262 293.4419  2.13280844 92789
COSMOS 2456 (730)       
1 36111U 09070A   19333.57124663  .00000052  00000-0  00000-0 0  9998
2 36111  64.2093 152.9684 0002656 352.8588  65.8579  2.13102878 77502
COSMOS 2457 (733)       
1 36112U 09070B   19334.27512091  .00000054  00000-0  00000+0 0  9994
2 36112  64.1919 152.8421 0006784 146.2314 216.7154  2.13101516 77521
COSMOS 2459 (731)       
1 36400U 10007A   19333.66601331 -.00000071  00000-0  10000-3 0  9999
2 36400  65.8202  34.6130 0024368 346.2194 299.2212  2.13104734 75854
COSMOS 2461 (735)       
1 36401U 10007B   19333.56960424 -.00000071  00000-0  10000-3 0  9990
2 36401  65.8125  34.5860 0005101  74.8539  47.0104  2.13101968 75854
COSMOS 2460 (732)       
1 36402U 10007C   19333.73220595 -.00000072  00000-0  10000-3 0  9999
2 36402  65.8020  34.5415 0001967 215.8289  70.3006  2.13101405 75856
COSMOS 2464 (736)       
1 37139U 10041C   19333.66100898 -.00000010  00000-0  00000-0 0  9998
2 37139  64.2538 272.8495 0025654   6.9531 172.3766  2.13100722 71925
COSMOS 2474 (742)       
1 37829U 11055A   19334.17196890  .00000054  00000-0  00000+0 0  9990
2 37829  64.5324 153.8888 0007909 240.4620 134.7574  2.13101883 63512
COSMOS 2476 (744)       
1 37867U 11064A   19333.35418508  .00000052  00000-0  00000+0 0  9992
2 37867  64.5128 153.9648 0017339 233.5026 280.5238  2.13101883 62844
COSMOS 2477 (745)       
1 37868U 11064B   19333.90332003  .00000053  00000-0  00000+0 0  9990
2 37868  64.5185 153.9998 0014908 233.8739 160.0450  2.13101811 62815
COSMOS 2475 (743)       
1 37869U 11064C   19334.45731182  .00000056  00000-0  00000+0 0  9996
2 37869  64.5243 153.9816 0018467 260.7100 155.4687  2.13102063 62837
COSMOS 2485 (747)       
1 39155U 13019A   19334.28786819  .00000055  00000-0  00000+0 0  9995
2 39155  64.6789 154.1584 0018053 228.7078 326.2853  2.13101954 51331
COSMOS 2492 (754)       
1 39620U 14012A   19333.98479936 -.00000073  00000-0  10000-3 0  9997
2 39620  65.6917  34.3435 0013108 318.1127  39.4579  2.13103342 44277
COSMOS 2500 (755)       
1 40001U 14032A   19333.59986848 -.00000071  00000-0  00000+0 0  9999
2 40001  65.6323  34.2875 0008216 208.0197  75.2649  2.13102554 42489
COSMOS 2501 (702K)      
1 40315U 14075A   19333.81614421 -.00000011  00000-0  00000+0 0  9998
2 40315  63.9721 273.8635 0016570 211.9471  33.8520  2.13098523 38893
COSMOS 2514 (751)       
1 41330U 16008A   19334.46524708 -.00000075  00000-0  00000+0 0  9994
2 41330  65.4347  34.1798 0011809 215.3970 193.8062  2.13102986 29675
COSMOS 2516 (753)       
1 41554U 16032A   19334.22343079 -.00000011  00000-0  00000+0 0  9993
2 41554  64.1952 273.8626 0013520 225.2643 249.0453  2.13101780 27275
COSMOS 2522 (752)       
1 42939U 17055A   19333.61301729 -.00000011  00000-0  00000+0 0  9995
2 42939  64.4268 274.0058 0008874 254.1731 338.3664  2.13101852 17010
COSMOS 2527 (756)       
1 43508U 18053A   19333.69825650  .00000053  00000-0  00000+0 0  9994
2 43508  64.8419 153.9841 0005816 214.8462 114.6140  2.13102611 11301
COSMOS 2529 (757)       
1 43687U 18086A   19333.68228814 -.00000010  00000-0  00000+0 0  9990
2 43687  64.6420 274.0691 0011740 272.5428 328.8085  2.13102045  8329
COSMOS 2534 (758)       
1 44299U 19030A   19334.14107668 -.00000010  00000-0  00000+0 0  9995
2 44299  64.7104 273.8522 0014860 289.1648  79.3010  2.13101914  3980
